{
"type": "FeatureCollection",
"name": "amenity",
"crs": { "type": "name", "properties": { "name": "urn:ogc:def:crs:OGC:1.3:CRS84" } },
"features": [
{ "type": "Feature", "properties": { "amenity": "place_of_worship", "addr:city": "Kiganjo", "addr:street": "Nyeri-Nanyuki Road", "name": null, "religion": "christian", "healthcare:": null, "denominatio": "jehovahs_witness", "addr:postco": null, "internet_ac": null, "internet_a1": null, "opening_hou": null, "brand:wikid": null, "brand:wikip": null }, "geometry": { "type": "Point", "coordinates": [ 37.001545124105157, -0.366953514070846 ] } },
{ "type": "Feature", "properties": { "amenity": "fuel", "addr:city": "Nyeri", "addr:street": "Kiganjo", "name": "Savannah Petro Station", "religion": null, "healthcare:": null, "denominatio": null, "addr:postco": "10100", "internet_ac": null, "internet_a1": null, "opening_hou": null, "brand:wikid": null, "brand:wikip": null }, "geometry": { "type": "Point", "coordinates": [ 37.001259323847385, -0.387437629486926 ] } },
{ "type": "Feature", "properties": { "amenity": "restaurant", "addr:city": null, "addr:street": null, "name": "Unity Paradise Resort", "religion": null, "healthcare:": null, "denominatio": null, "addr:postco": null, "internet_ac": "no", "internet_a1": "no", "opening_hou": null, "brand:wikid": null, "brand:wikip": null }, "geometry": { "type": "Point", "coordinates": [ 36.965380196735978, -0.435569765662434 ] } },
{ "type": "Feature", "properties": { "amenity": "public_building", "addr:city": null, "addr:street": null, "name": "County Council Offices of Nyeri", "religion": null, "healthcare:": null, "denominatio": null, "addr:postco": null, "internet_ac": null, "internet_a1": null, "opening_hou": null, "brand:wikid": null, "brand:wikip": null }, "geometry": { "type": "Point", "coordinates": [ 36.965594896896398, -0.436077166044194 ] } },
{ "type": "Feature", "properties": { "amenity": "place_of_worship", "addr:city": null, "addr:street": null, "name": "Riamokurwe Parish", "religion": "christian", "healthcare:": null, "denominatio": null, "addr:postco": null, "internet_ac": null, "internet_a1": null, "opening_hou": "08:00-22:30", "brand:wikid": null, "brand:wikip": null }, "geometry": { "type": "Point", "coordinates": [ 36.986712912785009, -0.438491367880351 ] } },
{ "type": "Feature", "properties": { "amenity": "community_centre", "addr:city": null, "addr:street": null, "name": "YMCA Nyeri Community Centre", "religion": null, "healthcare:": null, "denominatio": null, "addr:postco": null, "internet_ac": null, "internet_a1": null, "opening_hou": null, "brand:wikid": null, "brand:wikip": null }, "geometry": { "type": "Point", "coordinates": [ 36.957386890733936, -0.42968276122781 ] } },
{ "type": "Feature", "properties": { "amenity": "fuel", "addr:city": "Nyeri", "addr:street": null, "name": "Gulf petrol station", "religion": null, "healthcare:": null, "denominatio": null, "addr:postco": "10100", "internet_ac": null, "internet_a1": null, "opening_hou": null, "brand:wikid": null, "brand:wikip": null }, "geometry": { "type": "Point", "coordinates": [ 36.951052285987053, -0.420777654525094 ] } },
{ "type": "Feature", "properties": { "amenity": "fuel", "addr:city": "Nyeri", "addr:street": "Kiganjo", "name": "Rubis", "religion": null, "healthcare:": null, "denominatio": null, "addr:postco": "10100", "internet_ac": null, "internet_a1": null, "opening_hou": null, "brand:wikid": "Q3446514", "brand:wikip": "en:Rubis (company)" }, "geometry": { "type": "Point", "coordinates": [ 37.001063423703805, -0.385604228107104 ] } },
{ "type": "Feature", "properties": { "amenity": "fuel", "addr:city": "Nyeri", "addr:street": "Nyeri Karatina Road", "name": "National Oil", "religion": null, "healthcare:": null, "denominatio": null, "addr:postco": "10100", "internet_ac": null, "internet_a1": null, "opening_hou": null, "brand:wikid": null, "brand:wikip": null }, "geometry": { "type": "Point", "coordinates": [ 36.960230192868949, -0.431765062796396 ] } },
{ "type": "Feature", "properties": { "amenity": "fuel", "addr:city": "Nyeri", "addr:street": null, "name": "Total petrol station", "religion": null, "healthcare:": null, "denominatio": null, "addr:postco": "10100", "internet_ac": null, "internet_a1": null, "opening_hou": null, "brand:wikid": null, "brand:wikip": null }, "geometry": { "type": "Point", "coordinates": [ 36.955828489563679, -0.428573160391917 ] } },
{ "type": "Feature", "properties": { "amenity": "fuel", "addr:city": "Nyeri", "addr:street": "Kimathi street", "name": "Kobil petrol station", "religion": null, "healthcare:": null, "denominatio": null, "addr:postco": "10100", "internet_ac": null, "internet_a1": null, "opening_hou": null, "brand:wikid": null, "brand:wikip": null }, "geometry": { "type": "Point", "coordinates": [ 36.957219590617292, -0.425610958165621 ] } },
{ "type": "Feature", "properties": { "amenity": "fuel", "addr:city": "Nyeri", "addr:street": "Kimathi Way", "name": "Kobil petrol station", "religion": null, "healthcare:": null, "denominatio": null, "addr:postco": null, "internet_ac": null, "internet_a1": null, "opening_hou": null, "brand:wikid": null, "brand:wikip": null }, "geometry": { "type": "Point", "coordinates": [ 36.950853385834961, -0.421853855334254 ] } },
{ "type": "Feature", "properties": { "amenity": "fuel", "addr:city": "Nyeri", "addr:street": "Kimathi street", "name": "Shell petrol station", "religion": null, "healthcare:": null, "denominatio": null, "addr:postco": "10100", "internet_ac": null, "internet_a1": null, "opening_hou": null, "brand:wikid": null, "brand:wikip": null }, "geometry": { "type": "Point", "coordinates": [ 36.952505187078074, -0.421812855304944 ] } },
{ "type": "Feature", "properties": { "amenity": "fuel", "addr:city": "Nyeri", "addr:street": null, "name": "Total petrol station", "religion": null, "healthcare:": null, "denominatio": null, "addr:postco": "10100", "internet_ac": null, "internet_a1": null, "opening_hou": null, "brand:wikid": null, "brand:wikip": null }, "geometry": { "type": "Point", "coordinates": [ 36.949366984721898, -0.419415053498814 ] } },
{ "type": "Feature", "properties": { "amenity": "fuel", "addr:city": "Nyeri", "addr:street": "Nyeri-Nyahururu Highway", "name": "Rubis", "religion": null, "healthcare:": null, "denominatio": null, "addr:postco": "10100", "internet_ac": null, "internet_a1": null, "opening_hou": null, "brand:wikid": "Q3446514", "brand:wikip": "en:Rubis (company)" }, "geometry": { "type": "Point", "coordinates": [ 36.95111048604987, -0.412259048118494 ] } },
{ "type": "Feature", "properties": { "amenity": "fuel", "addr:city": "Nyeri", "addr:street": "Nyeri Karatina Road", "name": "OIL COM Skuta Petrol Station", "religion": null, "healthcare:": null, "denominatio": null, "addr:postco": null, "internet_ac": null, "internet_a1": null, "opening_hou": null, "brand:wikid": null, "brand:wikip": null }, "geometry": { "type": "Point", "coordinates": [ 36.974986603964062, -0.436347766256845 ] } },
{ "type": "Feature", "properties": { "amenity": "fuel", "addr:city": "Nyeri", "addr:street": "Nyeri Karatina Road", "name": "Riva petrol station", "religion": null, "healthcare:": null, "denominatio": null, "addr:postco": "10100", "internet_ac": null, "internet_a1": null, "opening_hou": null, "brand:wikid": null, "brand:wikip": null }, "geometry": { "type": "Point", "coordinates": [ 36.969705299994004, -0.434287464702359 ] } },
{ "type": "Feature", "properties": { "amenity": "marketplace", "addr:city": null, "addr:street": null, "name": "Muthinga Market", "religion": null, "healthcare:": null, "denominatio": null, "addr:postco": null, "internet_ac": null, "internet_a1": null, "opening_hou": null, "brand:wikid": null, "brand:wikip": null }, "geometry": { "type": "Point", "coordinates": [ 36.957783491075809, -0.410344546684416 ] } },
{ "type": "Feature", "properties": { "amenity": "school", "addr:city": null, "addr:street": null, "name": "Kagwathi Primary School", "religion": null, "healthcare:": null, "denominatio": null, "addr:postco": null, "internet_ac": null, "internet_a1": null, "opening_hou": null, "brand:wikid": null, "brand:wikip": null }, "geometry": { "type": "Point", "coordinates": [ 36.923732865319863, -0.467935489950424 ] } },
{ "type": "Feature", "properties": { "amenity": "place_of_worship", "addr:city": null, "addr:street": null, "name": "Kagwathi Catholic Church", "religion": "christian", "healthcare:": null, "denominatio": null, "addr:postco": null, "internet_ac": null, "internet_a1": null, "opening_hou": null, "brand:wikid": null, "brand:wikip": null }, "geometry": { "type": "Point", "coordinates": [ 36.924875466178968, -0.468186190140098 ] } },
{ "type": "Feature", "properties": { "amenity": "police", "addr:city": "Kiganjo", "addr:street": "Nyeri-Nyahururu Road", "name": "Kiganjo police training college", "religion": null, "healthcare:": null, "denominatio": null, "addr:postco": null, "internet_ac": null, "internet_a1": null, "opening_hou": null, "brand:wikid": null, "brand:wikip": null }, "geometry": { "type": "Point", "coordinates": [ 37.000056722930829, -0.392749433483035 ] } },
{ "type": "Feature", "properties": { "amenity": "university", "addr:city": "Nyeri", "addr:street": "Nyeri-Nyahururu Highway", "name": "Kimathi University", "religion": null, "healthcare:": null, "denominatio": null, "addr:postco": null, "internet_ac": null, "internet_a1": null, "opening_hou": null, "brand:wikid": null, "brand:wikip": null }, "geometry": { "type": "Point", "coordinates": [ 36.958495791651991, -0.391879232794802 ] } },
{ "type": "Feature", "properties": { "amenity": "restaurant", "addr:city": "Nyeri", "addr:street": "Kenyatta Road", "name": "White Rhino Hotel", "religion": null, "healthcare:": null, "denominatio": null, "addr:postco": null, "internet_ac": null, "internet_a1": null, "opening_hou": "24\/7", "brand:wikid": null, "brand:wikip": null }, "geometry": { "type": "Point", "coordinates": [ 36.948292683906111, -0.422685955957646 ] } },
{ "type": "Feature", "properties": { "amenity": "restaurant", "addr:city": "Nyeri", "addr:street": "Kenyatta Road", "name": "Green hills hotel", "religion": null, "healthcare:": null, "denominatio": null, "addr:postco": null, "internet_ac": null, "internet_a1": null, "opening_hou": null, "brand:wikid": null, "brand:wikip": null }, "geometry": { "type": "Point", "coordinates": [ 36.945639681904133, -0.425146057805173 ] } },
{ "type": "Feature", "properties": { "amenity": "bus_station", "addr:city": null, "addr:street": null, "name": "Nyeri bus station", "religion": null, "healthcare:": null, "denominatio": null, "addr:postco": null, "internet_ac": null, "internet_a1": null, "opening_hou": null, "brand:wikid": null, "brand:wikip": null }, "geometry": { "type": "Point", "coordinates": [ 36.95153698635098, -0.421143654800787 ] } },
{ "type": "Feature", "properties": { "amenity": "place_of_worship", "addr:city": null, "addr:street": null, "name": "Kingdom Hall of Jehovas Witnesses", "religion": null, "healthcare:": null, "denominatio": null, "addr:postco": null, "internet_ac": null, "internet_a1": null, "opening_hou": null, "brand:wikid": null, "brand:wikip": null }, "geometry": { "type": "Point", "coordinates": [ 37.002583424679692, -0.460327684316869 ] } },
{ "type": "Feature", "properties": { "amenity": "community_centre", "addr:city": null, "addr:street": null, "name": "Nyeri hosp Hqs", "religion": null, "healthcare:": null, "denominatio": null, "addr:postco": null, "internet_ac": null, "internet_a1": null, "opening_hou": null, "brand:wikid": null, "brand:wikip": null }, "geometry": { "type": "Point", "coordinates": [ 36.966143997333454, -0.425654758206913 ] } },
{ "type": "Feature", "properties": { "amenity": "fuel", "addr:city": "Gatitu", "addr:street": "Nyeri Karatina Road", "name": "National Oil", "religion": null, "healthcare:": null, "denominatio": null, "addr:postco": null, "internet_ac": null, "internet_a1": null, "opening_hou": null, "brand:wikid": null, "brand:wikip": null }, "geometry": { "type": "Point", "coordinates": [ 37.003575825422985, -0.461888285491353 ] } },
{ "type": "Feature", "properties": { "amenity": "fuel", "addr:city": "Gatitu", "addr:street": "Nyeri Karatina Road", "name": "Total", "religion": null, "healthcare:": null, "denominatio": null, "addr:postco": null, "internet_ac": null, "internet_a1": null, "opening_hou": null, "brand:wikid": "Q154037", "brand:wikip": "fr:Total (entreprise)" }, "geometry": { "type": "Point", "coordinates": [ 36.999873622645453, -0.458001782565116 ] } },
{ "type": "Feature", "properties": { "amenity": "restaurant", "addr:city": "Nyeri", "addr:street": "Nyeri Karatina Road", "name": "The Marvics Grill", "religion": null, "healthcare:": null, "denominatio": null, "addr:postco": null, "internet_ac": null, "internet_a1": null, "opening_hou": null, "brand:wikid": null, "brand:wikip": null }, "geometry": { "type": "Point", "coordinates": [ 36.996367220015003, -0.454237979731329 ] } },
{ "type": "Feature", "properties": { "amenity": "restaurant", "addr:city": "Nyeri", "addr:street": "Nyeri Karatina Road", "name": "Skuta Beavers Guest House", "religion": null, "healthcare:": null, "denominatio": null, "addr:postco": null, "internet_ac": null, "internet_a1": null, "opening_hou": null, "brand:wikid": null, "brand:wikip": null }, "geometry": { "type": "Point", "coordinates": [ 36.973045202506668, -0.434719965030838 ] } },
{ "type": "Feature", "properties": { "amenity": "place_of_worship", "addr:city": "Nyeri", "addr:street": "C70", "name": "St. Jude Ruring'u Catholic Parish, Nyeri", "religion": "christian", "healthcare:": null, "denominatio": null, "addr:postco": null, "internet_ac": null, "internet_a1": null, "opening_hou": null, "brand:wikid": null, "brand:wikip": null }, "geometry": { "type": "Point", "coordinates": [ 36.970516500597576, -0.437300266968747 ] } },
{ "type": "Feature", "properties": { "amenity": "bar", "addr:city": "Nyeri", "addr:street": "Nyeri Karatina Road", "name": "Escape Bar Lounge", "religion": null, "healthcare:": null, "denominatio": null, "addr:postco": null, "internet_ac": null, "internet_a1": null, "opening_hou": null, "brand:wikid": null, "brand:wikip": null }, "geometry": { "type": "Point", "coordinates": [ 36.969414599775661, -0.434095464557694 ] } },
{ "type": "Feature", "properties": { "amenity": "restaurant", "addr:city": "Nyeri", "addr:street": "Nyeri Karatina Road", "name": "Makuti Land", "religion": null, "healthcare:": null, "denominatio": null, "addr:postco": null, "internet_ac": null, "internet_a1": null, "opening_hou": null, "brand:wikid": null, "brand:wikip": null }, "geometry": { "type": "Point", "coordinates": [ 36.965791397052698, -0.432414663290233 ] } },
{ "type": "Feature", "properties": { "amenity": "place_of_worship", "addr:city": "Nyeri", "addr:street": "Michezo Road", "name": "Winners Chapel church", "religion": "christian", "healthcare:": null, "denominatio": null, "addr:postco": null, "internet_ac": null, "internet_a1": null, "opening_hou": null, "brand:wikid": null, "brand:wikip": null }, "geometry": { "type": "Point", "coordinates": [ 36.959953292661751, -0.43124186240269 ] } },
{ "type": "Feature", "properties": { "amenity": "place_of_worship", "addr:city": "Nyeri", "addr:street": null, "name": "P.C.E.A Nyamachaki", "religion": "christian", "healthcare:": null, "denominatio": null, "addr:postco": null, "internet_ac": null, "internet_a1": null, "opening_hou": null, "brand:wikid": null, "brand:wikip": null }, "geometry": { "type": "Point", "coordinates": [ 36.960697093234515, -0.425524458103825 ] } },
{ "type": "Feature", "properties": { "amenity": "bank", "addr:city": "Nyeri", "addr:street": "378 Gakere Road", "name": "JAMII BORA BANK NYERI BRANCH", "religion": null, "healthcare:": null, "denominatio": null, "addr:postco": null, "internet_ac": null, "internet_a1": null, "opening_hou": null, "brand:wikid": null, "brand:wikip": null }, "geometry": { "type": "Point", "coordinates": [ 36.956524890094627, -0.425558158125263 ] } },
{ "type": "Feature", "properties": { "amenity": "marketplace", "addr:city": "Nyeri", "addr:street": "Temple road", "name": "Open Air Market", "religion": null, "healthcare:": null, "denominatio": null, "addr:postco": null, "internet_ac": null, "internet_a1": null, "opening_hou": null, "brand:wikid": null, "brand:wikip": null }, "geometry": { "type": "Point", "coordinates": [ 36.955801489547902, -0.426578758892094 ] } },
{ "type": "Feature", "properties": { "amenity": "restaurant", "addr:city": "Nyeri", "addr:street": "378 Gakere Road", "name": "Nyeri Star Bar and Restaurant", "religion": null, "healthcare:": null, "denominatio": null, "addr:postco": null, "internet_ac": null, "internet_a1": null, "opening_hou": null, "brand:wikid": null, "brand:wikip": null }, "geometry": { "type": "Point", "coordinates": [ 36.955750989512197, -0.425569358132961 ] } },
{ "type": "Feature", "properties": { "amenity": "post_office", "addr:city": "Nyeri", "addr:street": "378 Gakere Road", "name": "Gakere Postal Office", "religion": null, "healthcare:": null, "denominatio": null, "addr:postco": null, "internet_ac": null, "internet_a1": null, "opening_hou": null, "brand:wikid": null, "brand:wikip": null }, "geometry": { "type": "Point", "coordinates": [ 36.955644389432386, -0.425384257993662 ] } },
{ "type": "Feature", "properties": { "amenity": "marketplace", "addr:city": "Nyeri", "addr:street": "378 Gakere Road", "name": "Nyeri Market Extension Stalls", "religion": null, "healthcare:": null, "denominatio": null, "addr:postco": null, "internet_ac": null, "internet_a1": null, "opening_hou": null, "brand:wikid": null, "brand:wikip": null }, "geometry": { "type": "Point", "coordinates": [ 36.95410608827784, -0.424019256965713 ] } },
{ "type": "Feature", "properties": { "amenity": "bank", "addr:city": "Nyeri", "addr:street": "Kimathi Way", "name": "KWFT", "religion": null, "healthcare:": null, "denominatio": null, "addr:postco": null, "internet_ac": null, "internet_a1": null, "opening_hou": null, "brand:wikid": null, "brand:wikip": null }, "geometry": { "type": "Point", "coordinates": [ 36.953863488098072, -0.422776356030787 ] } },
{ "type": "Feature", "properties": { "amenity": "bank", "addr:city": "Nyeri", "addr:street": "Kimathi Way", "name": "Equity Bank ATM", "religion": null, "healthcare:": null, "denominatio": null, "addr:postco": null, "internet_ac": null, "internet_a1": null, "opening_hou": null, "brand:wikid": null, "brand:wikip": null }, "geometry": { "type": "Point", "coordinates": [ 36.953269087651584, -0.422417455760332 ] } },
{ "type": "Feature", "properties": { "amenity": "bank", "addr:city": "Nyeri", "addr:street": "Kimathi Way", "name": "Postbank Nyeri Branch", "religion": null, "healthcare:": null, "denominatio": null, "addr:postco": null, "internet_ac": null, "internet_a1": null, "opening_hou": null, "brand:wikid": null, "brand:wikip": null }, "geometry": { "type": "Point", "coordinates": [ 36.951817486558994, -0.422509655828327 ] } },
{ "type": "Feature", "properties": { "amenity": "bank", "addr:city": "Nyeri", "addr:street": "Chania Bridge", "name": "National Bank-Nyeri", "religion": null, "healthcare:": null, "denominatio": null, "addr:postco": null, "internet_ac": null, "internet_a1": null, "opening_hou": null, "brand:wikid": null, "brand:wikip": null }, "geometry": { "type": "Point", "coordinates": [ 36.950364385466742, -0.421959855413518 ] } },
{ "type": "Feature", "properties": { "amenity": "bank", "addr:city": "Nyeri", "addr:street": "Nyeri Karatina Road", "name": "Kenya Commercial Bank", "religion": null, "healthcare:": null, "denominatio": null, "addr:postco": null, "internet_ac": null, "internet_a1": null, "opening_hou": null, "brand:wikid": null, "brand:wikip": null }, "geometry": { "type": "Point", "coordinates": [ 36.949301584664774, -0.42293085614275 ] } },
{ "type": "Feature", "properties": { "amenity": "bank", "addr:city": "Nyeri", "addr:street": "Kimathi Way", "name": "Family Bank-Nyeri", "religion": null, "healthcare:": null, "denominatio": null, "addr:postco": null, "internet_ac": null, "internet_a1": null, "opening_hou": null, "brand:wikid": null, "brand:wikip": null }, "geometry": { "type": "Point", "coordinates": [ 36.950856785839335, -0.421045254726161 ] } },
{ "type": "Feature", "properties": { "amenity": "post_office", "addr:city": "Nyeri", "addr:street": "Kimathi Way", "name": "Post Office", "religion": null, "healthcare:": null, "denominatio": null, "addr:postco": null, "internet_ac": null, "internet_a1": null, "opening_hou": null, "brand:wikid": null, "brand:wikip": null }, "geometry": { "type": "Point", "coordinates": [ 36.948505584069295, -0.421360654961188 ] } },
{ "type": "Feature", "properties": { "amenity": "bank", "addr:city": "Nyeri", "addr:street": "Nyeri Karatina Road", "name": "Consolidated Bank", "religion": null, "healthcare:": null, "denominatio": null, "addr:postco": null, "internet_ac": null, "internet_a1": null, "opening_hou": null, "brand:wikid": null, "brand:wikip": null }, "geometry": { "type": "Point", "coordinates": [ 36.948544984099939, -0.420918654628827 ] } },
{ "type": "Feature", "properties": { "amenity": "bank", "addr:city": "Nyeri", "addr:street": "C70", "name": "FAULU", "religion": null, "healthcare:": null, "denominatio": null, "addr:postco": null, "internet_ac": null, "internet_a1": null, "opening_hou": null, "brand:wikid": null, "brand:wikip": null }, "geometry": { "type": "Point", "coordinates": [ 36.948645484176055, -0.420709054471293 ] } },
{ "type": "Feature", "properties": { "amenity": "bank", "addr:city": "Nyeri", "addr:street": "Kenyatta Road", "name": "Standard Chartered Bank Nyeri", "religion": null, "healthcare:": null, "denominatio": null, "addr:postco": null, "internet_ac": null, "internet_a1": null, "opening_hou": null, "brand:wikid": null, "brand:wikip": null }, "geometry": { "type": "Point", "coordinates": [ 36.947796983535518, -0.421609955148015 ] } },
{ "type": "Feature", "properties": { "amenity": "school", "addr:city": "Nyeri", "addr:street": "Kenyatta Road", "name": "The Nyeri National Polytechnic", "religion": null, "healthcare:": null, "denominatio": null, "addr:postco": null, "internet_ac": null, "internet_a1": null, "opening_hou": null, "brand:wikid": null, "brand:wikip": null }, "geometry": { "type": "Point", "coordinates": [ 36.945139981525301, -0.426387558738287 ] } },
{ "type": "Feature", "properties": { "amenity": "restaurant", "addr:city": "Nyeri", "addr:street": "C70", "name": "Chania Place Hotel", "religion": null, "healthcare:": null, "denominatio": null, "addr:postco": null, "internet_ac": null, "internet_a1": null, "opening_hou": null, "brand:wikid": null, "brand:wikip": null }, "geometry": { "type": "Point", "coordinates": [ 36.94438508097916, -0.416652551416752 ] } },
{ "type": "Feature", "properties": { "amenity": "restaurant", "addr:city": "Nyeri", "addr:street": "Nyeri-Nyahururu Highway", "name": "Golden Gates Hotel", "religion": null, "healthcare:": null, "denominatio": null, "addr:postco": null, "internet_ac": null, "internet_a1": null, "opening_hou": null, "brand:wikid": null, "brand:wikip": null }, "geometry": { "type": "Point", "coordinates": [ 36.931155971123239, -0.370773716895167 ] } },
{ "type": "Feature", "properties": { "amenity": "restaurant", "addr:city": "Nyeri", "addr:street": "Nyeri-Nyahururu Highway", "name": "Embassy Complex", "religion": null, "healthcare:": null, "denominatio": null, "addr:postco": null, "internet_ac": null, "internet_a1": null, "opening_hou": null, "brand:wikid": null, "brand:wikip": null }, "geometry": { "type": "Point", "coordinates": [ 36.932275571962826, -0.372147417929528 ] } },
{ "type": "Feature", "properties": { "amenity": "cafe", "addr:city": "King'ong'o", "addr:street": "Nyeri-Nyahururu Road", "name": "The Hub Cyber Cafe", "religion": null, "healthcare:": null, "denominatio": null, "addr:postco": null, "internet_ac": null, "internet_a1": null, "opening_hou": null, "brand:wikid": null, "brand:wikip": null }, "geometry": { "type": "Point", "coordinates": [ 36.954095488292118, -0.414087049496008 ] } },
{ "type": "Feature", "properties": { "amenity": "marketplace", "addr:city": "King'ong'o", "addr:street": "Nyeri-Nyahururu Road", "name": "King'ong'o Market", "religion": null, "healthcare:": null, "denominatio": null, "addr:postco": null, "internet_ac": null, "internet_a1": null, "opening_hou": null, "brand:wikid": null, "brand:wikip": null }, "geometry": { "type": "Point", "coordinates": [ 36.956374390002594, -0.416111851020914 ] } },
{ "type": "Feature", "properties": { "amenity": "college", "addr:city": "Nyeri", "addr:street": "Nyeri-Nyahururu Road", "name": "Kenya Medical Training College", "religion": null, "healthcare:": null, "denominatio": null, "addr:postco": null, "internet_ac": null, "internet_a1": null, "opening_hou": null, "brand:wikid": null, "brand:wikip": null }, "geometry": { "type": "Point", "coordinates": [ 36.960852693370398, -0.417175751825118 ] } },
{ "type": "Feature", "properties": { "amenity": "school", "addr:city": "Nyeri", "addr:street": "Nyeri-Nyahururu Road", "name": "Nyeri Baptist School", "religion": null, "healthcare:": null, "denominatio": null, "addr:postco": null, "internet_ac": null, "internet_a1": null, "opening_hou": null, "brand:wikid": null, "brand:wikip": null }, "geometry": { "type": "Point", "coordinates": [ 36.96683969788009, -0.415389250486827 ] } },
{ "type": "Feature", "properties": { "amenity": "fuel", "addr:city": "Kiganjo", "addr:street": "Nyeri-Nanyuki Road", "name": "Rubis", "religion": null, "healthcare:": null, "denominatio": null, "addr:postco": null, "internet_ac": null, "internet_a1": null, "opening_hou": null, "brand:wikid": "Q3446514", "brand:wikip": "en:Rubis (company)" }, "geometry": { "type": "Point", "coordinates": [ 37.000466923263843, -0.381310324875297 ] } },
{ "type": "Feature", "properties": { "amenity": "fuel", "addr:city": "Chaka", "addr:street": "Nyeri-Nanyuki Road", "name": "Shell", "religion": null, "healthcare:": null, "denominatio": null, "addr:postco": null, "internet_ac": null, "internet_a1": null, "opening_hou": null, "brand:wikid": "Q154950", "brand:wikip": "en:Royal Dutch Shell" }, "geometry": { "type": "Point", "coordinates": [ 36.999979022937012, -0.361678610099325 ] } },
{ "type": "Feature", "properties": { "amenity": "bank", "addr:city": "Nyeri", "addr:street": "Nyeri-Nanyuki Road", "name": "EQUITY BANK CHAKA BRANCH", "religion": null, "healthcare:": null, "denominatio": null, "addr:postco": null, "internet_ac": null, "internet_a1": null, "opening_hou": null, "brand:wikid": null, "brand:wikip": null }, "geometry": { "type": "Point", "coordinates": [ 36.999917122892001, -0.360898309511931 ] } },
{ "type": "Feature", "properties": { "amenity": "restaurant", "addr:city": null, "addr:street": "Nyeri Karatina Road", "name": "Bells", "religion": null, "healthcare:": null, "denominatio": null, "addr:postco": null, "internet_ac": null, "internet_a1": null, "opening_hou": null, "brand:wikid": null, "brand:wikip": null }, "geometry": { "type": "Point", "coordinates": [ 36.973913603164419, -0.432907863668941 ] } },
{ "type": "Feature", "properties": { "amenity": "restaurant", "addr:city": "Skuta", "addr:street": "Nyeri Karatina Road", "name": "Skuta Meat Centre.", "religion": null, "healthcare:": null, "denominatio": null, "addr:postco": null, "internet_ac": null, "internet_a1": null, "opening_hou": null, "brand:wikid": null, "brand:wikip": null }, "geometry": { "type": "Point", "coordinates": [ 36.97124670115214, -0.435126965335159 ] } }
]
}
